[{"OBJECT_NAME":"STARLINK-35447","OBJECT_ID":"2025-270B","EPOCH":"2026-03-09T22:27:45.076032","MEAN_MOTION":15.27584351,"ECCENTRICITY":0.00020001,"INCLINATION":43.0089,"RA_OF_ASC_NODE":54.7849,"ARG_OF_PERICENTER":257.2499,"MEAN_ANOMALY":102.8129,"EPHEMERIS_TYPE":0,"CLASSIFICATION_TYPE":"U","NORAD_CAT_ID":66589,"ELEMENT_SET_NO":999,"REV_AT_EPOCH":1785,"BSTAR":0.00083719631,"MEAN_MOTION_DOT":0.0002285,"MEAN_MOTION_DDOT":0},{"OBJECT_NAME":"ELECTRON KICK STAGE R\/B","OBJECT_ID":"2022-147B","EPOCH":"2026-03-09T22:28:20.187264","MEAN_MOTION":15.28920172,"ECCENTRICITY":0.00095089,"INCLINATION":97.642,"RA_OF_ASC_NODE":85.1135,"ARG_OF_PERICENTER":110.4683,"MEAN_ANOMALY":249.7578,"EPHEMERIS_TYPE":0,"CLASSIFICATION_TYPE":"U","NORAD_CAT_ID":54228,"ELEMENT_SET_NO":999,"REV_AT_EPOCH":18390,"BSTAR":0.00083201931,"MEAN_MOTION_DOT":0.00023374,"MEAN_MOTION_DDOT":0}]
